IRIDIUM 63              
1 25286U 98021B   25280.80947184  .00000765  00000+0  25339-3 0  9993
2 25286  86.4011  34.8578 0001921  92.1051 268.0366 14.36651244440017
IRIDIUM 69              
1 25319U 98026A   25280.82325580  .00001004  00000+0  30594-3 0  9993
2 25319  86.3980  47.7861 0003456  49.4025 310.7475 14.41096752439283
IRIDIUM 71              
1 25320U 98026B   25280.39929589  .00000539  00000+0  16065-3 0  9995
2 25320  86.3987  42.6424 0004219  84.0556 276.1125 14.41253351439752
IRIDIUM 73              
1 25344U 98032C   25280.68618338  .00000900  00000+0  21839-3 0  9994
2 25344  86.4470 359.0465 0002007  75.4749 284.6679 14.51867131446885
IRIDIUM 82              
1 25467U 98051A   25280.81971239  .00069243  00000+0  16264-2 0  9998
2 25467  86.3639  54.0826 0073310 227.2606 132.2464 15.38928957441238
